#aV2015  6  7  0  0  0.00000000     288 DD+AD WGS84 FIT  NGA
## 1848      0.00000000   300.00000000 57180 0.0000000000000
+   31     1  2  3  4  5  6  7  9 10 11 12 13 14 15 16 17 18
+         19 20 21 22 23 24 25 26 27 28 29 30 31 32  0  0  0
+          0  0  0  0  0  0  0  0  0  0  0  0  0  0  0  0  0
+          0  0  0  0  0  0  0  0  0  0  0  0  0  0  0  0  0
+          0  0  0  0  0  0  0  0  0  0  0  0  0  0  0  0  0
++         2  2  2  2  2  2  2  2  2  2  2  2  2  2  2  2  2
++         2  2  2  2  2  2  2  2  2  2  2  2  2  2  0  0  0
++         0  0  0  0  0  0  0  0  0  0  0  0  0  0  0  0  0
++         0  0  0  0  0  0  0  0  0  0  0  0  0  0  0  0  0
++         0  0  0  0  0  0  0  0  0  0  0  0  0  0  0  0  0
%c cc cc ccc ccc cccc cccc cccc cccc ccccc ccccc ccccc ccccc
%c cc cc ccc ccc cccc cccc cccc cccc ccccc ccccc ccccc ccccc
%f  0.0000000  0.000000000  0.00000000000  0.000000000000000
%f  0.0000000  0.000000000  0.00000000000  0.000000000000000
%i    0    0    0    0      0      0      0      0         0
%i    0    0    0    0      0      0      0      0         0
/*      NGA, ST. LOUIS,MO.                                  
/*   EPHEMERIS COMPUTED FROM  1 DAYS OF DATA                
/*   EPOCHA SMOOTHER                                       
/* CCCCCCCCCCCCCCCCCCCCCCCCCCCCCCCCCCCCCCCCCCCCCCCCCCCCCCCCC
*  2015  6  7  3  0  0.00000000
P  1  18032.796432  13412.018909 -14357.151655     -4.605776                    
V  1 -18122.615933  -1281.636554 -23857.823162      0.004950                    
P  2   4232.320147 -15322.061837  21621.822473    570.536853                    
V  2  26371.791808   4189.445138  -2679.798224      0.023576                    
P  3  13773.156565  21237.634104   7997.924906    344.977919                    
V  3    955.973302  10459.633646 -29510.627416      0.078792                    
P  4   8853.372264  15960.401116 -19707.008240    -18.026791                    
V  4 -24216.799508  -2545.788831 -12894.217766     -0.018674                    
P  5  -1087.646470 -24286.802292  10421.153832   -232.417575                    
V  5   7542.838685  11478.291005  27591.605829      0.045003                    
P  6  19401.172934  -8140.513694  16209.709926    178.710351                    
V  6  19968.391613   5309.153649 -21241.857136      0.088321                    
P  7  25927.190855   6430.405908   1820.985949    467.095519                    
V  7  -2545.000299   1725.007722  31604.350119      0.024173                    
P  9  16766.268005   2321.892402  20466.398448   -167.230279                    
V  9 -15829.717128  20659.536107  10601.074737     -0.049244                    
P 10  12742.577441  -9484.865184  20846.134775   -177.920487                    
V 10  10080.940983  25611.662101   5809.136778     -0.015073                    
P 11  13223.197106  13434.138430 -19285.896757   -583.326622                    
V 11 -22980.875428   5822.461598 -11909.914865     -0.025161                    
P 12 -11128.733593 -23622.662601   5362.930664    299.338712                    
V 12   -466.511331  -7066.866176 -31280.355244      0.031971                    
P 13   9818.315431 -21331.851466 -12668.785538   -121.155729                    
V 13  12661.680040  -9610.352380  26169.416435     -0.033878                    
P 14 -21076.033871  13749.850324  -7999.520770     57.886781                    
V 14   5461.492985  -9372.884406 -29755.231323     -0.027771                    
P 15  -3026.303883 -18748.317166 -18532.064006   -253.542215                    
V 15  15784.678619 -17594.060353  15614.963240     -0.021444                    
P 16   -451.061925  23951.189888  10968.182207   -121.493111                    
V 16  -5846.033510 -13017.998541  28345.127506      0.038813                    
P 17  20589.583981 -14294.892450  -8170.149069   -174.740071                    
V 17  -5462.801899   9669.490757 -29822.843478     -0.017036                    
P 18 -17348.990187  -4799.056430 -19116.783215    407.389493                    
V 18  -7776.564554 -24232.405975  12511.976314      0.029817                    
P 19  -1457.357935  19144.736925 -18338.883491   -512.655617                    
V 19 -17486.893050  15086.765299  17780.698041     -0.010637                    
P 20  -9568.530277 -24657.916026   1916.433511    327.227864                    
V 20   4708.802040    783.885114  30880.689572      0.035903                    
P 21 -26346.736804  -4652.742193    722.179065   -453.024673                    
V 21    604.374643  -3301.249812  30906.717082     -0.033931                    
P 22 -13437.043452   8972.266702 -20827.965897    358.379694                    
V 22 -10448.123581 -25089.049648  -4198.632817      0.038606                    
P 23   9764.301040  12345.912698  21504.969505   -113.237917                    
V 23 -17856.753759  20318.880959  -4019.627764     -0.024218                    
P 24 -15579.131020 -14163.462139 -16315.113440    -49.522165                    
V 24  20657.276996   1299.330589 -20756.257536     -0.006092                    
P 25 -16327.269065 -13988.236982  15603.795364    -37.105342                    
V 25  -5421.122555 -19200.308375 -22576.469112     -0.040627                    
P 26  -7158.123442  17753.347269  18398.992657     30.280097                    
V 26  -9545.578682 -21407.104742  16936.904435     -0.011354                    
P 27 -10319.069991  22550.349262  -9366.924957     77.380050                    
V 27  -9466.615869   7601.510621  28900.137172      0.027215                    
P 28  13950.687714  -3274.247266 -21748.859829    445.090166                    
V 28   8028.393644  27916.398382    839.096805      0.025829                    
P 29 -15239.974286  -4806.434655  21228.448987    615.139502                    
V 29  17837.581402 -20111.846657   8307.784623      0.023714                    
P 30  24960.178021   -429.064112  -9182.759491    -47.971532                    
V 30  10639.786509   5389.280577  28635.312636      0.062857                    
P 31 -16759.792395   9409.249280  18606.671299    313.696004                    
V 31 -22504.777041  -5737.240822 -17159.639298     -0.011140                    
P 32   4021.216184  26199.832180  -4322.919543   -131.834964                    
V 32  -4079.185200  -4464.375136 -30460.976142      0.096599                    
EOF
